STARLINK-37491          
1 69166U 26111U   26157.58337963  .00101740  00000+0  58470-3 0  9993
2 69166  53.1589 204.7152 0000742  85.8075 300.2413 15.77983486  3844
STARLINK-37474          
1 69167U 26111V   26157.58337963 -.00049200  00000+0 -28131-3 0  9999
2 69167  53.1588 204.6852 0000917  89.2513 311.3051 15.78041657  3846
STARLINK-37469          
1 69168U 26111W   26157.58337963 -.02475049  00000+0 -18628-1 0  9994
2 69168  53.1588 204.6587 0001122  38.6180  14.9107 15.75536703  3845
STARLINK-37515          
1 69169U 26111X   26157.58337963  .00077454  00000+0  44703-3 0  9994
2 69169  53.1591 204.6658 0001384  76.1463 333.7398 15.77997381  3849
STARLINK-37437          
1 69170U 26111Y   26157.57107859  .00181536  00000+0  90158-3 0  9996
2 69170  53.1582 204.6841 0001881 139.0955 221.0209 15.80932545  2587
STARLINK-37392          
1 69171U 26111Z   26157.58337963  .00069443  00000+0  40132-3 0  9998
2 69171  53.1587 204.5858 0000878  63.9681  24.5411 15.78011543  3840
STARLINK-37472          
1 69172U 26111AA  26157.58337963 -.00255378  00000+0 -13254-2 0  9999
2 69172  53.1583 204.5676 0001420  61.1128  36.1787 15.80927234  3846
STARLINK-37461          
1 69173U 26111AB  26157.58337963 -.02078504  00000+0 -14267-1 0  9990
2 69173  53.1588 204.6300 0001280  38.7633  28.2942 15.76976399  3848
STARLINK-37333          
1 69174U 26111AC  26157.58337963  .00124514  00000+0  71326-3 0  9991
2 69174  53.1586 204.6467 0000891  99.0515 320.0241 15.77969658  3843
STARLINK-37385          
1 69175U 26111AD  26157.58337963 -.00655845  00000+0 -42243-2 0  9995
2 69175  53.1588 204.6139 0000939  47.9164  26.8839 15.77236346  3842
STARLINK-37414          
1 69176U 26111AE  26157.58337963  .00163667  00000+0  93438-3 0  9993
2 69176  53.1586 204.5950 0001240  91.6232 352.3494 15.77913557  3849
STRIX-7                 
1 69177U 26112A   26157.59321263  .00004758  00000+0  37884-3 0  9990
2 69177  44.9066 248.0895 0024244 347.4803  12.5463 15.01378344  2281
SHENZHOU-23 (SZ-23)     
1 69180U 26113A   26157.60981134  .00029051  00000+0  34664-3 0  9992
2 69180  41.4693  26.3518 0009161 355.2486   4.8264 15.60358302291254
STARLINK-37380          
1 69182U 26114A   26157.58337963  .00096547  00000+0  55514-3 0  9998
2 69182  53.1589 255.4318 0001010 104.5505 276.9014 15.77993796  3105
STARLINK-37089          
1 69183U 26114B   26157.58337963  .00016589  00000+0  99290-4 0  9997
2 69183  53.1589 255.4206 0000749  77.2601 309.4903 15.78033985  3108
STARLINK-37428          
1 69184U 26114C   26157.58337963  .00008445  00000+0  52452-4 0  9999
2 69184  53.1588 255.4048 0000717  85.9420 308.7814 15.78045586  3105
STARLINK-37237          
1 69185U 26114D   26157.58337963  .00056038  00000+0  32489-3 0  9998
2 69185  53.1588 255.3721 0001063  62.4179 347.9633 15.78025448  3108
STARLINK-37365          
1 69186U 26114E   26157.58337963  .00033920  00000+0  19860-3 0  9992
2 69186  53.1587 255.3753 0001111  85.7783 322.8203 15.78034778  3107
STARLINK-37209          
1 69187U 26114F   26157.58337963  .00059465  00000+0  34439-3 0  9994
2 69187  53.1587 255.3667 0001198  80.5848 332.4122 15.78025779  3100
STARLINK-37359          
1 69188U 26114G   26157.58337963 -.00002702  00000+0 -11733-4 0  9992
2 69188  53.1589 255.3614 0000598  84.4670 331.0317 15.78046645  3100
STARLINK-37440          
1 69189U 26114H   26157.58337963 -.01583764  00000+0 -76869-2 0  9995
2 69189  53.1567 254.9914 0001021  63.5071 170.2828 15.84568125  3109
STARLINK-37282          
1 69190U 26114J   26157.58337963  .00231252  00000+0  11501-2 0  9998
2 69190  53.1585 255.3192 0001241  83.9209 351.9080 15.80758586  3103
STARLINK-37422          
1 69191U 26114K   26157.58337963 -.00006855  00000+0 -31208-4 0  9998
2 69191  53.1589 255.2993 0000991 105.1968 340.3871 15.80878374  3104
STARLINK-37424          
1 69192U 26114L   26157.58337963  .00052790  00000+0  26994-3 0  9991
2 69192  53.1586 255.3109 0000636  83.3042 356.7866 15.80826030  3105
STARLINK-36666          
1 69193U 26114M   26157.58337963  .00043900  00000+0  22527-3 0  9993
2 69193  53.1587 255.3020 0001453  70.5991  13.7584 15.80829306  3104
STARLINK-37355          
1 69194U 26114N   26157.58337963  .00080371  00000+0  40809-3 0  9990
2 69194  53.1587 255.2934 0000865  84.4124   4.2225 15.80812434  3107
STARLINK-37166          
1 69195U 26114P   26157.58337963  .00118221  00000+0  59671-3 0  9994
2 69195  53.1587 255.2753 0001002  54.5137  42.6780 15.80786118  3104
