OBJECT_NAME,OBJECT_ID,EPOCH,MEAN_MOTION,ECCENTRICITY,INCLINATION,RA_OF_ASC_NODE,ARG_OF_PERICENTER,MEAN_ANOMALY,EPHEMERIS_TYPE,CLASSIFICATION_TYPE,NORAD_CAT_ID,ELEMENT_SET_NO,REV_AT_EPOCH,BSTAR,MEAN_MOTION_DOT,MEAN_MOTION_DDOT
STARLINK-37491,2026-111U,2026-06-06T14:00:04.000032,15.77983486,.00007426,53.1589,204.7152,85.8075,300.2413,0,U,69166,999,384,.58470148E-3,.10174E-2,0
STARLINK-37474,2026-111V,2026-06-06T14:00:04.000032,15.78041657,.00009173,53.1588,204.6852,89.2513,311.3051,0,U,69167,999,384,-.28130797E-3,-.492E-3,0
STARLINK-37469,2026-111W,2026-06-06T14:00:04.000032,15.75536703,.00011224,53.1588,204.6587,38.6180,14.9107,0,U,69168,999,384,-.18628241E-1,-.2475049E-1,0
STARLINK-37515,2026-111X,2026-06-06T14:00:04.000032,15.77997381,.00013843,53.1591,204.6658,76.1463,333.7398,0,U,69169,999,384,.44703254E-3,.77454E-3,0
STARLINK-37437,2026-111Y,2026-06-06T13:42:21.190176,15.80932545,.00018819,53.1582,204.6841,139.0955,221.0209,0,U,69170,999,258,.9015836E-3,.181536E-2,0
STARLINK-37392,2026-111Z,2026-06-06T14:00:04.000032,15.78011543,.00008782,53.1587,204.5858,63.9681,24.5411,0,U,69171,999,384,.40131587E-3,.69443E-3,0
STARLINK-37472,2026-111AA,2026-06-06T14:00:04.000032,15.80927234,.00014205,53.1583,204.5676,61.1128,36.1787,0,U,69172,999,384,-.13254426E-2,-.255378E-2,0
STARLINK-37461,2026-111AB,2026-06-06T14:00:04.000032,15.76976399,.00012803,53.1588,204.6300,38.7633,28.2942,0,U,69173,999,384,-.14267081E-1,-.2078504E-1,0
STARLINK-37333,2026-111AC,2026-06-06T14:00:04.000032,15.77969658,.00008913,53.1586,204.6467,99.0515,320.0241,0,U,69174,999,384,.71326295E-3,.124514E-2,0
STARLINK-37385,2026-111AD,2026-06-06T14:00:04.000032,15.77236346,.00009396,53.1588,204.6139,47.9164,26.8839,0,U,69175,999,384,-.42242524E-2,-.655845E-2,0
STARLINK-37414,2026-111AE,2026-06-06T14:00:04.000032,15.77913557,.00012408,53.1586,204.5950,91.6232,352.3494,0,U,69176,999,384,.93437845E-3,.163667E-2,0
STRIX-7,2026-112A,2026-06-06T14:14:13.571232,15.01378344,.00242441,44.9066,248.0895,347.4803,12.5463,0,U,69177,999,228,.3788423E-3,.4758E-4,0
SHENZHOU-23 (SZ-23),2026-113A,2026-06-06T14:38:07.699776,15.60358302,.00091619,41.4693,26.3518,355.2486,4.8264,0,U,69180,999,29125,.3466432E-3,.29051E-3,0
STARLINK-37380,2026-114A,2026-06-06T14:00:04.000032,15.77993796,.000101,53.1589,255.4318,104.5505,276.9014,0,U,69182,999,310,.55513593E-3,.96547E-3,0
STARLINK-37089,2026-114B,2026-06-06T14:00:04.000032,15.78033985,.00007495,53.1589,255.4206,77.2601,309.4903,0,U,69183,999,310,.99289824E-4,.16589E-3,0
STARLINK-37428,2026-114C,2026-06-06T14:00:04.000032,15.78045586,.0000717,53.1588,255.4048,85.9420,308.7814,0,U,69184,999,310,.52452372E-4,.8445E-4,0
STARLINK-37237,2026-114D,2026-06-06T14:00:04.000032,15.78025448,.0001063,53.1588,255.3721,62.4179,347.9633,0,U,69185,999,310,.32489323E-3,.56038E-3,0
STARLINK-37365,2026-114E,2026-06-06T14:00:04.000032,15.78034778,.00011114,53.1587,255.3753,85.7783,322.8203,0,U,69186,999,310,.19860286E-3,.3392E-3,0
STARLINK-37209,2026-114F,2026-06-06T14:00:04.000032,15.78025779,.00011984,53.1587,255.3667,80.5848,332.4122,0,U,69187,999,310,.34438578E-3,.59465E-3,0
STARLINK-37359,2026-114G,2026-06-06T14:00:04.000032,15.78046645,.00005982,53.1589,255.3614,84.4670,331.0317,0,U,69188,999,310,-.11732808E-4,-.2702E-4,0
STARLINK-37440,2026-114H,2026-06-06T14:00:04.000032,15.84568125,.00010214,53.1567,254.9914,63.5071,170.2828,0,U,69189,999,310,-.76868895E-2,-.1583764E-1,0
STARLINK-37282,2026-114J,2026-06-06T14:00:04.000032,15.80758586,.0001241,53.1585,255.3192,83.9209,351.9080,0,U,69190,999,310,.11500953E-2,.231252E-2,0
STARLINK-37422,2026-114K,2026-06-06T14:00:04.000032,15.80878374,.00009917,53.1589,255.2993,105.1968,340.3871,0,U,69191,999,310,-.31208472E-4,-.6855E-4,0
STARLINK-37424,2026-114L,2026-06-06T14:00:04.000032,15.80826030,.0000636,53.1586,255.3109,83.3042,356.7866,0,U,69192,999,310,.26994352E-3,.5279E-3,0
STARLINK-36666,2026-114M,2026-06-06T14:00:04.000032,15.80829306,.00014534,53.1587,255.3020,70.5991,13.7584,0,U,69193,999,310,.22527334E-3,.439E-3,0
STARLINK-37355,2026-114N,2026-06-06T14:00:04.000032,15.80812434,.00008655,53.1587,255.2934,84.4124,4.2225,0,U,69194,999,310,.40808897E-3,.80371E-3,0
STARLINK-37166,2026-114P,2026-06-06T14:00:04.000032,15.80786118,.00010029,53.1587,255.2753,54.5137,42.6780,0,U,69195,999,310,.59671174E-3,.118221E-2,0
